{
  "norad_id": 44076,
  "name": "TIANLIAN 2-01",
  "history": [
    {
      "epoch": "2026-03-27T23:44:58.522272Z",
      "apogee_km": 35797.39715935347,
      "perigee_km": 35776.008622670364,
      "latitude_deg": 0.0431757364268628,
      "longitude_deg": 76.99055624495828,
      "height_km": 35781.247509543915,
      "semi_major_axis_km": 42164.83989101192,
      "eccentricity": 0.00025363,
      "inclination_deg": 0.3309,
      "raan_deg": 82.4132,
      "arg_perigee_deg": 238.5281,
      "mean_anomaly_deg": 297.7123,
      "mean_motion_rev_day": 1.002714
    }
  ]
}